start=new Date('2021-11-01T00:00:00.000Z').valueOf();
sats=[{"ECCENTRICITY":"0.00012680","RA_OF_ASC_NODE":"64.8094","TLE_LINE2":"2 46033  53.0547  64.8094 0001268  91.3048 268.8086 15.06408661 69207","ARG_OF_PERICENTER":"91.3048","MEAN_MOTION_DDOT":"0.0000000000000","EPOCH":"2021-10-31T14:23:54.663072","GP_ID":"188570928","NORAD_CAT_ID":"46033","MEAN_MOTION_DOT":"0.00002269","MEAN_ANOMALY":"268.8086","MEAN_ELEMENT_THEORY":"SGP4","SITE":"AFETR","OBJECT_TYPE":"PAYLOAD","REV_AT_EPOCH":"6920","EPHEMERIS_TYPE":"0","COUNTRY_CODE":"US","APOAPSIS":"548.065","CLASSIFICATION_TYPE":"U","DECAY_DATE":null,"PERIAPSIS":"546.309","BSTAR":"0.00017115000000","INCLINATION":"53.0547","RCS_SIZE":"LARGE","SEMIMAJOR_AXIS":"6925.322","OBJECT_ID":"2020-055G","PERIOD":"95.592","ELEMENT_SET_NO":"999","CENTER_NAME":"EARTH","OBJECT_NAME":"STARLINK-1556","TIME_SYSTEM":"UTC","MEAN_MOTION":"15.06408661","FILE":"3194431","TLE_LINE1":"1 46033U 20055G   21304.59993823  .00002269  00000-0  17115-3 0  9993","REF_FRAME":"TEME","LAUNCH_DATE":"2020-08-07"},{"BSTAR":"0.00033083000000","DECAY_DATE":null,"PERIAPSIS":"546.302","OBJECT_ID":"2020-055H","PERIOD":"95.592","SEMIMAJOR_AXIS":"6925.321","INCLINATION":"53.0543","RCS_SIZE":"LARGE","FILE":"3194950","MEAN_MOTION":"15.06409022","OBJECT_NAME":"STARLINK-1557","TIME_SYSTEM":"UTC","CENTER_NAME":"EARTH","ELEMENT_SET_NO":"999","LAUNCH_DATE":"2020-08-07","REF_FRAME":"TEME","TLE_LINE1":"1 46034U 20055H   21304.80266926  .00004651  00000-0  33083-3 0  9994","TLE_LINE2":"2 46034  53.0543  63.9087 0001277  96.6086 263.5049 15.06409022 69232","ARG_OF_PERICENTER":"96.6086","RA_OF_ASC_NODE":"63.9087","ECCENTRICITY":"0.00012770","MEAN_MOTION_DOT":"0.00004651","MEAN_ANOMALY":"263.5049","NORAD_CAT_ID":"46034","MEAN_MOTION_DDOT":"0.0000000000000","EPOCH":"2021-10-31T19:15:50.624064","GP_ID":"188604071","REV_AT_EPOCH":"6923","OBJECT_TYPE":"PAYLOAD","MEAN_ELEMENT_THEORY":"SGP4","SITE":"AFETR","CLASSIFICATION_TYPE":"U","APOAPSIS":"548.070","EPHEMERIS_TYPE":"0","COUNTRY_CODE":"US"},{"PERIAPSIS":"546.283","DECAY_DATE":null,"BSTAR":"0.00043196000000","SEMIMAJOR_AXIS":"6925.315","RCS_SIZE":"LARGE","INCLINATION":"53.0536","PERIOD":"95.591","OBJECT_ID":"2020-055J","TIME_SYSTEM":"UTC","OBJECT_NAME":"STARLINK-1558","CENTER_NAME":"EARTH","ELEMENT_SET_NO":"999","FILE":"3194950","MEAN_MOTION":"15.06411103","REF_FRAME":"TEME","TLE_LINE1":"1 46035U 20055J   21304.81005776  .00006160  00000-0  43196-3 0  9993","LAUNCH_DATE":"2020-08-07","RA_OF_ASC_NODE":"63.8678","ECCENTRICITY":"0.00012950","ARG_OF_PERICENTER":"78.1084","TLE_LINE2":"2 46035  53.0536  63.8678 0001295  78.1084 282.0050 15.06411103 69267","NORAD_CAT_ID":"46035","GP_ID":"188604321","MEAN_MOTION_DDOT":"0.0000000000000","EPOCH":"2021-10-31T19:26:28.990464","MEAN_ANOMALY":"282.0050","MEAN_MOTION_DOT":"0.00006160","OBJECT_TYPE":"PAYLOAD","SITE":"AFETR","MEAN_ELEMENT_THEORY":"SGP4","REV_AT_EPOCH":"6926","APOAPSIS":"548.076","EPHEMERIS_TYPE":"0","COUNTRY_CODE":"US","CLASSIFICATION_TYPE":"U"},{"TLE_LINE1":"1 46036U 20055K   21304.86164310  .00002012  00000-0  15387-3 0  9992","REF_FRAME":"TEME","LAUNCH_DATE":"2020-08-07","ELEMENT_SET_NO":"999","CENTER_NAME":"EARTH","OBJECT_NAME":"STARLINK-1560","TIME_SYSTEM":"UTC","MEAN_MOTION":"15.06405832","FILE":"3194950","INCLINATION":"53.0541","RCS_SIZE":"LARGE","SEMIMAJOR_AXIS":"6925.331","OBJECT_ID":"2020-055K","PERIOD":"95.592","DECAY_DATE":null,"PERIAPSIS":"546.250","BSTAR":"0.00015387000000","EPHEMERIS_TYPE":"0","COUNTRY_CODE":"US","APOAPSIS":"548.141","CLASSIFICATION_TYPE":"U","MEAN_ELEMENT_THEORY":"SGP4","SITE":"AFETR","OBJECT_TYPE":"PAYLOAD","REV_AT_EPOCH":"6927","MEAN_MOTION_DDOT":"0.0000000000000","EPOCH":"2021-10-31T20:40:45.963840","GP_ID":"188605073","NORAD_CAT_ID":"46036","MEAN_MOTION_DOT":"0.00002012","MEAN_ANOMALY":"267.0435","ECCENTRICITY":"0.00013650","RA_OF_ASC_NODE":"63.6345","TLE_LINE2":"2 46036  53.0541  63.6345 0001365  93.0710 267.0435 15.06405832 69276","ARG_OF_PERICENTER":"93.0710"},{"COUNTRY_CODE":"US","EPHEMERIS_TYPE":"0","APOAPSIS":"548.104","CLASSIFICATION_TYPE":"U","SITE":"AFETR","MEAN_ELEMENT_THEORY":"SGP4","OBJECT_TYPE":"PAYLOAD","REV_AT_EPOCH":"6923","GP_ID":"188605317","MEAN_MOTION_DDOT":"0.0000000000000","EPOCH":"2021-10-31T15:48:50.477184","NORAD_CAT_ID":"46037","MEAN_ANOMALY":"268.2275","MEAN_MOTION_DOT":"-0.00000296","ECCENTRICITY":"0.00012920","RA_OF_ASC_NODE":"64.5522","ARG_OF_PERICENTER":"91.8862","TLE_LINE2":"2 46037  53.0556  64.5522 0001292  91.8862 268.2275 15.06401345 69239","TLE_LINE1":"1 46037U 20055L   21304.65891756 -.00000296  00000-0 -99478-6 0  9991","REF_FRAME":"TEME","LAUNCH_DATE":"2020-08-07","CENTER_NAME":"EARTH","ELEMENT_SET_NO":"999","TIME_SYSTEM":"UTC","OBJECT_NAME":"STARLINK-1565","MEAN_MOTION":"15.06401345","FILE":"3194950","RCS_SIZE":"LARGE","INCLINATION":"53.0556","SEMIMAJOR_AXIS":"6925.344","PERIOD":"95.592","OBJECT_ID":"2020-055L","PERIAPSIS":"546.315","DECAY_DATE":null,"BSTAR":"-0.00000099478000"},{"OBJECT_ID":"2020-055M","PERIOD":"95.592","SEMIMAJOR_AXIS":"6925.347","INCLINATION":"53.0559","RCS_SIZE":"LARGE","BSTAR":"-0.00001945900000","DECAY_DATE":null,"PERIAPSIS":"546.208","LAUNCH_DATE":"2020-08-07","REF_FRAME":"TEME","TLE_LINE1":"1 46038U 20055M   21304.67366717 -.00000571  00000-0 -19459-4 0  9993","FILE":"3194950","MEAN_MOTION":"15.06400480","OBJECT_NAME":"STARLINK-1567","TIME_SYSTEM":"UTC","ELEMENT_SET_NO":"999","CENTER_NAME":"EARTH","MEAN_MOTION_DOT":"-0.00000571","MEAN_ANOMALY":"284.2726","NORAD_CAT_ID":"46038","MEAN_MOTION_DDOT":"0.0000000000000","EPOCH":"2021-10-31T16:10:04.843488","GP_ID":"188604572","TLE_LINE2":"2 46038  53.0559  64.4888 0001450  75.8424 284.2726 15.06400480 69237","ARG_OF_PERICENTER":"75.8424","RA_OF_ASC_NODE":"64.4888","ECCENTRICITY":"0.00014500","CLASSIFICATION_TYPE":"U","APOAPSIS":"548.216","COUNTRY_CODE":"US","EPHEMERIS_TYPE":"0","REV_AT_EPOCH":"6923","OBJECT_TYPE":"PAYLOAD","MEAN_ELEMENT_THEORY":"SGP4","SITE":"AFETR"},{"REV_AT_EPOCH":"6924","SITE":"AFETR","MEAN_ELEMENT_THEORY":"SGP4","OBJECT_TYPE":"PAYLOAD","CLASSIFICATION_TYPE":"U","EPHEMERIS_TYPE":"0","COUNTRY_CODE":"US","APOAPSIS":"548.034","TLE_LINE2":"2 46039  53.0556  64.1570 0001208  89.4677 270.6450 15.06405109 69249","ARG_OF_PERICENTER":"89.4677","ECCENTRICITY":"0.00012080","RA_OF_ASC_NODE":"64.1570","MEAN_MOTION_DOT":"0.00000690","MEAN_ANOMALY":"270.6450","MEAN_MOTION_DDOT":"0.0000000000000","EPOCH":"2021-10-31T17:56:13.137792","GP_ID":"188604822","NORAD_CAT_ID":"46039","MEAN_MOTION":"15.06405109","FILE":"3194950","ELEMENT_SET_NO":"999","CENTER_NAME":"EARTH","OBJECT_NAME":"STARLINK-1569","TIME_SYSTEM":"UTC","LAUNCH_DATE":"2020-08-07","TLE_LINE1":"1 46039U 20055N   21304.74737428  .00000690  00000-0  65215-4 0  9994","REF_FRAME":"TEME","BSTAR":"0.00006521500000","DECAY_DATE":null,"PERIAPSIS":"546.361","OBJECT_ID":"2020-055N","PERIOD":"95.592","INCLINATION":"53.0556","RCS_SIZE":"LARGE","SEMIMAJOR_AXIS":"6925.333"},{"CLASSIFICATION_TYPE":"U","APOAPSIS":"548.190","COUNTRY_CODE":"US","EPHEMERIS_TYPE":"0","REV_AT_EPOCH":"6922","OBJECT_TYPE":"PAYLOAD","MEAN_ELEMENT_THEORY":"SGP4","SITE":"AFETR","MEAN_MOTION_DOT":"0.00001448","MEAN_ANOMALY":"288.8812","NORAD_CAT_ID":"46040","MEAN_MOTION_DDOT":"0.0000000000000","EPOCH":"2021-10-31T20:14:13.944480","GP_ID":"188605574","TLE_LINE2":"2 46040  53.0553  63.7284 0001425  71.2331 288.8812 15.06403295 69227","ARG_OF_PERICENTER":"71.2331","RA_OF_ASC_NODE":"63.7284","ECCENTRICITY":"0.00014250","LAUNCH_DATE":"2020-08-07","REF_FRAME":"TEME","TLE_LINE1":"1 46040U 20055P   21304.84321695  .00001448  00000-0  11609-3 0  9991","FILE":"3194950","MEAN_MOTION":"15.06403295","OBJECT_NAME":"STARLINK-1576","TIME_SYSTEM":"UTC","CENTER_NAME":"EARTH","ELEMENT_SET_NO":"999","OBJECT_ID":"2020-055P","PERIOD":"95.592","SEMIMAJOR_AXIS":"6925.338","INCLINATION":"53.0553","RCS_SIZE":"LARGE","BSTAR":"0.00011609000000","DECAY_DATE":null,"PERIAPSIS":"546.217"},{"RA_OF_ASC_NODE":"68.7773","ECCENTRICITY":"0.00012360","ARG_OF_PERICENTER":"87.5876","TLE_LINE2":"2 46041  53.0558  68.7773 0001236  87.5876 272.5254 15.06396403 69069","NORAD_CAT_ID":"46041","GP_ID":"188570929","MEAN_MOTION_DDOT":"0.0000000000000","EPOCH":"2021-10-30T17:14:00.386592","MEAN_ANOMALY":"272.5254","MEAN_MOTION_DOT":"0.00001245","OBJECT_TYPE":"PAYLOAD","MEAN_ELEMENT_THEORY":"SGP4","SITE":"AFETR","REV_AT_EPOCH":"6906","APOAPSIS":"548.081","COUNTRY_CODE":"US","EPHEMERIS_TYPE":"0","CLASSIFICATION_TYPE":"U","PERIAPSIS":"546.369","DECAY_DATE":null,"BSTAR":"0.00010247000000","SEMIMAJOR_AXIS":"6925.360","RCS_SIZE":"LARGE","INCLINATION":"53.0558","PERIOD":"95.592","OBJECT_ID":"2020-055Q","TIME_SYSTEM":"UTC","OBJECT_NAME":"STARLINK-1580","CENTER_NAME":"EARTH","ELEMENT_SET_NO":"999","FILE":"3194431","MEAN_MOTION":"15.06396403","REF_FRAME":"TEME","TLE_LINE1":"1 46041U 20055Q   21303.71806003  .00001245  00000-0  10247-3 0  9990","LAUNCH_DATE":"2020-08-07"},{"EPHEMERIS_TYPE":"0","COUNTRY_CODE":"US","APOAPSIS":"548.165","CLASSIFICATION_TYPE":"U","SITE":"AFETR","MEAN_ELEMENT_THEORY":"SGP4","OBJECT_TYPE":"PAYLOAD","REV_AT_EPOCH":"6922","MEAN_MOTION_DDOT":"0.0000000000000","EPOCH":"2021-10-31T19:53:00.824064","GP_ID":"188604072","NORAD_CAT_ID":"46042","MEAN_MOTION_DOT":"-0.00000917","MEAN_ANOMALY":"276.1990","ECCENTRICITY":"0.00013490","RA_OF_ASC_NODE":"63.7897","TLE_LINE2":"2 46042  53.0561  63.7897 0001349  83.9153 276.1990 15.06394505 69225","ARG_OF_PERICENTER":"83.9153","TLE_LINE1":"1 46042U 20055R   21304.82848176 -.00000917  00000-0 -42675-4 0  9999","REF_FRAME":"TEME","LAUNCH_DATE":"2020-08-07","ELEMENT_SET_NO":"999","CENTER_NAME":"EARTH","OBJECT_NAME":"STARLINK-1581","TIME_SYSTEM":"UTC","MEAN_MOTION":"15.06394505","FILE":"3194950","INCLINATION":"53.0561","RCS_SIZE":"LARGE","SEMIMAJOR_AXIS":"6925.365","OBJECT_ID":"2020-055R","PERIOD":"95.592","DECAY_DATE":null,"PERIAPSIS":"546.296","BSTAR":"-0.00004267500000"}];
